[{"OBJECT_NAME":"STARLINK-34793","OBJECT_ID":"2025-165J","EPOCH":"2026-03-09T23:04:27.651360","MEAN_MOTION":15.05646458,"ECCENTRICITY":7.12e-5,"INCLINATION":97.6031,"RA_OF_ASC_NODE":147.5308,"ARG_OF_PERICENTER":102.7137,"MEAN_ANOMALY":257.417,"EPHEMERIS_TYPE":0,"CLASSIFICATION_TYPE":"U","NORAD_CAT_ID":65064,"ELEMENT_SET_NO":999,"REV_AT_EPOCH":3483,"BSTAR":0.00057183585,"MEAN_MOTION_DOT":8.199e-5,"MEAN_MOTION_DDOT":0},{"OBJECT_NAME":"THOR AGENA B R\/B","OBJECT_ID":"1965-098C","EPOCH":"2026-03-09T15:40:12.733824","MEAN_MOTION":12.27969783,"ECCENTRICITY":0.13310603,"INCLINATION":79.835,"RA_OF_ASC_NODE":125.8522,"ARG_OF_PERICENTER":232.6333,"MEAN_ANOMALY":114.6139,"EPHEMERIS_TYPE":0,"CLASSIFICATION_TYPE":"U","NORAD_CAT_ID":1807,"ELEMENT_SET_NO":999,"REV_AT_EPOCH":66108,"BSTAR":0.00040632197,"MEAN_MOTION_DOT":1.226e-5,"MEAN_MOTION_DDOT":0}]
